{"type":"Feature","properties":{"shapeName":"Dubai","shapeISO":"AE-DU","shapeID":"86790563B34058819691262","shapeGroup":"ARE","shapeType":"ADM1"},"geometry":{"type":"MultiPolygon","coordinates":[[[[56.0763817,24.7394524],[56.0888062,24.736166],[56.0975571,24.7367783],[56.1195564,24.7342777],[56.1443329,24.7415562],[56.1499176,24.7454453],[56.1517487,24.7540283],[56.1550324,24.7606613],[56.1765395,24.7722625],[56.1784817,24.7785324],[56.1823044,24.7808056],[56.2010535,24.7851227],[56.2036202,24.8238098],[56.1666641,24.8261108],[56.1424942,24.8227768],[56.1241608,24.8247185],[56.1055527,24.8202744],[56.0888824,24.7805519],[56.0786057,24.7649994],[56.0747147,24.7513885],[56.0741653,24.7449989],[56.0763817,24.7394524]]],[[[54.953219,24.9965156],[54.9547339,24.9925827],[54.958855,24.9942932],[54.9564028,24.999506],[54.9565184,25.0065568],[54.9631686,25.0217742],[54.9847361,25.0333096],[54.9862253,25.032693],[54.9866233,25.035857],[54.9758777,25.0363106],[54.969266,25.0335655],[54.9654273,25.0298315],[54.9536161,25.0106362],[54.953219,24.9965156]]],[[[55.0154012,25.0222279],[55.0192958,25.0245061],[55.0098961,25.0324871],[55.0009977,25.0356362],[54.9894524,25.0361428],[54.9889389,25.031918],[54.9940742,25.0329323],[55.0048583,25.0308385],[55.0118834,25.0268927],[55.0154012,25.0222279]]],[[[55.7391785,24.7534103],[55.7165804,24.8346221],[55.6647876,24.9929953],[55.6619924,24.9979044],[55.6624448,25.0526116],[55.6292964,25.2104279],[55.3859168,25.302331],[55.3741795,25.2965887],[55.3627533,25.2978497],[55.349829630357576,25.312548505709987],[55.3520459,25.3073844],[55.3578502,25.3027093],[55.357582,25.3000613],[55.3553075,25.2981795],[55.3508121,25.2996733],[55.3475283,25.3082509],[55.3487575,25.3157439],[55.3527944,25.3202704],[55.3521918,25.3218071],[55.354706,25.3267355],[55.353705,25.3278168],[55.3514185,25.3278183],[55.3509829,25.3264684],[55.3503252,25.327733],[55.3491853,25.327109],[55.3483409,25.3241124],[55.3465047,25.3247723],[55.3469708,25.3217795],[55.3443145,25.3211479],[55.3446292,25.3183583],[55.3384591,25.309653],[55.3374908,25.3140608],[55.341071,25.3201378],[55.3376809,25.3243198],[55.3352278,25.3238328],[55.33554,25.3196151],[55.3322095,25.3111243],[55.3338011,25.3115509],[55.3329235,25.309906],[55.3358725,25.3077747],[55.3372033,25.3097166],[55.3380802,25.309125],[55.3304246,25.2993813],[55.337163,25.3071035],[55.3386354,25.3060808],[55.328857,25.2953583],[55.327646,25.2963334],[55.3296901,25.3004868],[55.3259572,25.2951775],[55.3229927,25.2996115],[55.3152736,25.3014933],[55.316233,25.3041834],[55.3188908,25.3049185],[55.3215727,25.3021649],[55.3258916,25.3010834],[55.3253021,25.303325],[55.3277901,25.3048245],[55.326949,25.3074947],[55.3288099,25.3069695],[55.3296816,25.3082382],[55.3315154,25.3228064],[55.3311096,25.3204089],[55.3288088,25.3215955],[55.3280857,25.3286821],[55.3313247,25.3263896],[55.3254764,25.3311617],[55.3215567,25.329744],[55.3190686,25.3345858],[55.3150931,25.3340568],[55.311382,25.3363172],[55.3127064,25.3396461],[55.3088505,25.3449296],[55.2931228,25.3563847],[55.294192,25.3468331],[55.2943236,25.3478753],[55.2965552,25.3471301],[55.3001982,25.3435101],[55.2992042,25.3417473],[55.297265,25.3425434],[55.293387,25.3400722],[55.2923163,25.333987],[55.2933285,25.3296397],[55.2937207,25.3305784],[55.2950843,25.3296276],[55.3035403,25.3215262],[55.3114099,25.3169869],[55.3166246,25.315762],[55.3199275,25.3202324],[55.3205047,25.3278569],[55.3241766,25.3239662],[55.3230603,25.3240496],[55.3192719,25.3119165],[55.3165157,25.3097672],[55.3169352,25.3118932],[55.3110225,25.3065524],[55.311552,25.3041388],[55.3111824,25.3064501],[55.3133874,25.3042786],[55.3122805,25.3012105],[55.302874,25.302759],[55.3049822,25.3030752],[55.2987407,25.3027435],[55.2948236,25.30071],[55.2915156,25.2959765],[55.2900922,25.3011877],[55.2929997,25.303923],[55.2975777,25.3053653],[55.2851677,25.3143737],[55.2823202,25.3119727],[55.2812688,25.3047047],[55.2873773,25.2952058],[55.2891652,25.2965512],[55.2909223,25.2941743],[55.2899461,25.2891063],[55.2914428,25.28615],[55.2902921,25.2906463],[55.2929742,25.2902619],[55.2948948,25.2856165],[55.29464,25.2848307],[55.292918,25.2843287],[55.2923816,25.2860627],[55.2929635,25.2833282],[55.2945434,25.2792622],[55.3013267,25.2838897],[55.3020223,25.2830599],[55.3000366,25.282483],[55.3037058,25.2833634],[55.3141021,25.2908015],[55.3183935,25.2895295],[55.2937069,25.2750094],[55.2928268,25.2786874],[55.2901929,25.2842341],[55.2850618,25.2885073],[55.2836349,25.2883642],[55.276401,25.2849956],[55.2690357,25.2796309],[55.2764921,25.2848598],[55.2841524,25.2883315],[55.2900588,25.2841055],[55.2911746,25.2819131],[55.290496,25.2807126],[55.2899595,25.2812097],[55.2901312,25.2804045],[55.2895678,25.2809296],[55.289517,25.2801305],[55.2887552,25.2808484],[55.2893976,25.2793904],[55.2747728,25.2686678],[55.275371,25.2648232],[55.2849285,25.2717913],[55.282367,25.2653612],[55.2854266,25.2648692],[55.2831333,25.2617547],[55.2833809,25.2635128],[55.2788418,25.2614418],[55.2704921,25.261158],[55.2710232,25.2691941],[55.2667278,25.2750939],[55.2665628,25.2820125],[55.2644063,25.2830675],[55.2591679,25.2809138],[55.2603079,25.2780664],[55.2587824,25.2726548],[55.2595575,25.2738075],[55.2621768,25.2732795],[55.2607724,25.2673874],[55.2582878,25.268346],[55.2576806,25.2672556],[55.2579509,25.2684099],[55.2560336,25.2687855],[55.2574949,25.2830597],[55.2545869,25.2644048],[55.2684269,25.2607359],[55.2758833,25.2527114],[55.273909,25.2526228],[55.2743259,25.2510906],[55.2728364,25.2516222],[55.2687887,25.2552961],[55.2724931,25.2513912],[55.2707955,25.2495542],[55.2660487,25.2530099],[55.2651722,25.2521041],[55.2693492,25.2489644],[55.2646521,25.251426],[55.2638077,25.2505432],[55.26822,25.2468237],[55.2662944,25.2449163],[55.2657822,25.2461832],[55.2652243,25.2455257],[55.2529559,25.2521631],[55.2493805,25.2576237],[55.2502066,25.269917],[55.2491472,25.258138],[55.2502174,25.2547176],[55.2526089,25.2522027],[55.2646637,25.2450987],[55.2648434,25.2439221],[55.2557478,25.2496996],[55.2540824,25.2457295],[55.2526391,25.2455512],[55.2571935,25.2400124],[55.2620003,25.2393586],[55.2621505,25.242236],[55.2659029,25.2438736],[55.2661686,25.2401639],[55.264931,25.2394598],[55.2647149,25.2404126],[55.2645276,25.2395566],[55.2652813,25.2390597],[55.2631683,25.2358936],[55.2628795,25.2373967],[55.2620969,25.2343334],[55.258366,25.2342614],[55.259932,25.234127],[55.260101,25.232553],[55.2562891,25.229769],[55.2554941,25.2283687],[55.2567346,25.2292835],[55.2568147,25.2270418],[55.2540483,25.225855],[55.2532898,25.227525],[55.2536256,25.2260929],[55.2513477,25.2243949],[55.2535789,25.2238578],[55.2523789,25.220468],[55.2499849,25.219181],[55.250827,25.2180924],[55.2476633,25.2146423],[55.2441717,25.2133822],[55.2417393,25.2104411],[55.2428436,25.2089356],[55.2392656,25.2049266],[55.2382273,25.2143182],[55.2394472,25.2139173],[55.2357061,25.2205109],[55.2338714,25.2217532],[55.236103,25.2195597],[55.2354164,25.2166866],[55.2373905,25.2111344],[55.2349121,25.2079796],[55.2329488,25.2087271],[55.2352447,25.2076787],[55.2383561,25.2088241],[55.2384698,25.2049584],[55.2371985,25.2048747],[55.2381825,25.2028375],[55.2304343,25.1931239],[55.2287808,25.1934731],[55.2264276,25.1876657],[55.2237483,25.1869979],[55.2211569,25.1814213],[55.219316,25.181365],[55.2173933,25.1787711],[55.217684,25.176221],[55.2152484,25.1758036],[55.216862,25.1750557],[55.2149392,25.1724758],[55.2133705,25.1733256],[55.2149252,25.1766056],[55.2130369,25.1726828],[55.2115133,25.1726978],[55.2090563,25.1661292],[55.1997633,25.1542102],[55.1977648,25.1540431],[55.1984429,25.1523961],[55.1962199,25.1524271],[55.1974497,25.1551392],[55.1960732,25.1526785],[55.192594,25.1533522],[55.1922575,25.1514408],[55.1947736,25.1500203],[55.193643,25.1471641],[55.1915114,25.1447176],[55.1890972,25.1448056],[55.1905864,25.1437639],[55.1897617,25.1424715],[55.1880996,25.1434808],[55.1885258,25.1457819],[55.1878159,25.1441435],[55.1884337,25.142178],[55.18181,25.1325834],[55.180613,25.131435],[55.1791182,25.1324917],[55.1793088,25.1301141],[55.1684039,25.1182313],[55.1640037,25.1154942],[55.1631638,25.1143802],[55.1649445,25.1142939],[55.1631519,25.1123041],[55.1619642,25.1123771],[55.1625359,25.1151898],[55.1613448,25.1119285],[55.1621595,25.1102805],[55.159409,25.1091934],[55.1584339,25.1067732],[55.1569331,25.1071787],[55.1579767,25.1062314],[55.156984,25.1047881],[55.1566473,25.108089],[55.1561756,25.1045643],[55.1521994,25.1025713],[55.1522705,25.1000517],[55.1456898,25.0927513],[55.1424995,25.094336],[55.1402431,25.0895096],[55.138367,25.0910265],[55.139607,25.092303],[55.1342033,25.0920355],[55.129518,25.08934],[55.1338629,25.0901805],[55.1347909,25.088791],[55.1366693,25.0890619],[55.1369152,25.0872072],[55.1294726,25.0758509],[55.1268159,25.0741456],[55.1258168,25.0753776],[55.1248149,25.0718057],[55.1235811,25.0820219],[55.1177664,25.0802287],[55.1202992,25.0760769],[55.124134,25.0749622],[55.1230008,25.0730515],[55.123925,25.0712823],[55.1098851,25.0559928],[55.105282,25.0525119],[55.103003,25.0538605],[55.1050267,25.0520137],[55.1042484,25.0511944],[55.1016237,25.0536018],[55.1023135,25.0546261],[55.1011052,25.0532091],[55.1035145,25.051369],[55.1024747,25.049654],[55.0896515,25.0351835],[55.0759167,25.0228568],[55.074278,25.022122],[55.0722975,25.0267702],[55.0470633,25.0223528],[55.0465353,25.0206215],[55.0433809,25.020058],[55.0463617,25.0202411],[55.052053,25.0067648],[55.0504436,25.0026114],[55.0461546,25.0016106],[55.043305,25.0027823],[55.0425689,25.0049623],[55.0439025,25.0055869],[55.0420558,25.0053073],[55.0370642,25.0171371],[55.0383629,25.0205902],[55.0368256,25.0172074],[55.0452869,24.9968608],[55.0402505,24.9938342],[55.0367601,24.9928161],[55.0354476,24.9957721],[55.032556,24.9958429],[55.0353587,24.9955745],[55.0361196,24.992994],[55.0307641,24.9924298],[55.031967,24.9972852],[55.0297584,24.9910893],[55.0257093,24.9899871],[55.0257487,24.9919413],[55.0156233,24.9853454],[55.0159723,24.9937658],[55.0204068,24.9976352],[55.0223565,25.0022565],[55.0244487,25.0015592],[55.021014,24.9959564],[55.0226057,24.9956656],[55.026159,25.0064257],[55.0261143,25.0181255],[55.0248383,25.0173312],[55.026118,25.0117403],[55.0254188,25.0048637],[55.0248528,25.0026759],[55.022592,25.0032281],[55.0237386,25.0128355],[55.0207978,25.0220731],[55.0226904,25.0230278],[55.0309621,25.0178693],[55.0227264,25.0233146],[55.0167898,25.0200538],[55.0188392,25.0172251],[55.0196994,25.008653],[55.0175811,25.0012212],[55.0143084,24.9975069],[55.0158366,24.9961215],[55.0123861,24.9915973],[55.0128042,24.9852611],[55.0144138,24.9845184],[55.0128592,24.9832952],[55.0120961,24.9841002],[55.0133673,24.9822977],[55.0122128,24.9816475],[55.0110737,24.9829281],[55.0112138,24.9818047],[55.0051157,24.979599],[55.0039746,24.9809785],[55.0057748,24.9836057],[54.995796,24.999223],[54.9916101,25.0018549],[55.0002964,25.0017928],[55.0071942,24.9972646],[55.008222,24.998484],[55.0034037,25.0019446],[54.9922639,25.0045281],[55.0015501,25.0049742],[55.0099826,25.0020584],[55.0108377,25.0033234],[55.0043397,25.0057412],[54.9912068,25.0064513],[55.0000621,25.0089624],[55.0109203,25.0070629],[55.0121048,25.0082822],[55.0017175,25.0102196],[54.9899401,25.0082044],[54.999074,25.0126435],[55.0107283,25.0116901],[55.0118612,25.0129491],[55.0018635,25.0141489],[54.9888017,25.010045],[54.9965665,25.0161655],[55.0079463,25.0181448],[55.0087703,25.0194213],[54.9981023,25.0180685],[54.9883859,25.0112233],[54.9875701,25.0119953],[54.9927113,25.0182105],[55.0038843,25.0227686],[55.0030808,25.0241296],[54.9965093,25.0220676],[54.9872128,25.0138844],[54.9860949,25.0145028],[54.9883545,25.0196022],[54.9955931,25.0255325],[54.9947959,25.026945],[54.9894305,25.023],[54.9851657,25.0160214],[54.9847499,25.0216701],[54.9825312,25.0188444],[54.9802427,25.0190933],[54.9802057,25.0175192],[54.9695809,25.0180331],[54.9700814,25.0167108],[54.9791902,25.0159447],[54.9811156,25.0139788],[54.971613,25.0145058],[54.9662174,25.0128821],[54.9662475,25.0114728],[54.9769409,25.0134349],[54.9820715,25.012602],[54.9819918,25.0112801],[54.9696786,25.0087743],[54.9646387,25.005446],[54.9643125,25.0036647],[54.9734476,25.0089736],[54.981999,25.0101282],[54.9837978,25.0090561],[54.9735918,25.0060821],[54.9676969,25.0018275],[54.9654138,24.997692],[54.9753391,25.0056454],[54.9825591,25.0077388],[54.9848117,25.0071291],[54.9756105,25.0023215],[54.9708003,24.9963871],[54.9695552,24.991826],[54.9708984,24.9919174],[54.9768481,25.0017633],[54.9857494,25.0061217],[54.976339,24.9968276],[54.9737131,24.989234],[54.9750913,24.9891985],[54.979283,24.9985929],[54.9867493,25.0041508],[54.9800486,24.9937251],[54.97879,24.9874947],[54.9803918,24.9874797],[54.9828959,24.9966516],[54.9878104,25.0024211],[54.9841859,24.9925888],[54.9844587,24.9870007],[54.9861635,24.9866603],[54.9859411,24.9944921],[54.99041,25.001252],[54.9911144,24.9998864],[54.9897545,24.9991948],[54.9995982,24.9804179],[55.0019712,24.9804303],[55.0024077,24.977905],[54.991983,24.9736688],[54.9876001,24.9783775],[54.9857344,24.9775523],[54.9822212,24.9790748],[54.9821618,24.9816522],[54.9758668,24.9814635],[54.9672221,24.9846404],[54.961904,24.9887631],[54.9601587,24.9920844],[54.9538958,24.9894635],[54.9536155,24.9800674],[54.9540977,24.9892644],[54.9561023,24.9901472],[54.9631025,24.9827741],[54.9734684,24.9781698],[54.972889,24.9762587],[54.9636432,24.9798573],[54.958201,24.9844912],[54.9568172,24.983991],[54.9623748,24.9801641],[54.9676304,24.9774558],[54.9793131,24.974332],[54.9799376,24.9757282],[54.9732377,24.976048],[54.9737471,24.9781109],[54.983782,24.9770725],[54.987374,24.974139],[54.9870347,24.9712865],[54.9742323,24.9660192],[54.9696596,24.9668527],[54.9620711,24.9642043],[54.9257651,24.9331329],[54.9224955,24.9326061],[54.9114212,24.9411551],[54.9161387,24.9502556],[54.9127531,24.9496836],[54.9070484,24.9543294],[54.9049095,24.9538213],[54.9055166,24.9546851],[54.9034151,24.9553456],[54.8997445,24.9531778],[54.8992286,24.9500909],[54.8995679,24.9467703],[54.9042774,24.944719],[54.9043411,24.9433728],[54.9025028,24.9431997],[54.8957359,24.9471421],[54.8952376,24.9502701],[54.8931306,24.9513214],[54.9021945,24.9562924],[54.9067326,24.9565901],[54.9021788,24.9564747],[54.8965676,24.954075],[54.8933978,24.9520294],[54.8913159,24.9497181],[54.8912837,24.9468012],[54.8984248,24.9369412],[54.9024856,24.935674],[54.9065293,24.9364703],[54.9107463,24.940834],[54.9215299,24.9325428],[54.9211098,24.9304141],[54.9155013,24.9277571],[54.9025359,24.9132875],[54.8981274,24.9105536],[54.89047609699039,24.910962206731899],[54.9398979,24.8977458],[55.0080981,24.876008],[55.0232701,24.8679401],[55.1420993,24.7253917],[55.2022422,24.6592076],[55.2510709,24.6377004],[55.2946406,24.624529],[55.3210307,24.6331366],[55.3321391,24.6348033],[55.3963099,24.63147],[55.438531,24.6334151],[55.4651957,24.6378581],[55.4863063,24.6450777],[55.5004741,24.6520225],[55.5084131,24.7169034],[55.5698035,24.7175277],[55.6024847,24.7136519],[55.6194346,24.7179205],[55.6354437,24.7185322],[55.6557551,24.724225],[55.6674205,24.7303346],[55.7391785,24.7534103]]],[[[55.0471755,25.0423724],[55.0571593,25.0485243],[55.0576123,25.0483976],[55.0585065,25.0459929],[55.0549622,25.0460542],[55.0555936,25.0434312],[55.0516953,25.0401302],[55.0494031,25.0405443],[55.0471634,25.0370249],[55.0411172,25.0337058],[55.0379323,25.0362108],[55.0459417,25.0417918],[55.0366051,25.0360197],[55.0399553,25.0324421],[55.0409956,25.0281244],[55.060515,25.0407526],[55.0610127,25.0396784],[55.0578024,25.0484343],[55.0574668,25.0486928],[55.0569634,25.048637],[55.0471755,25.0423724]]],[[[55.1208063,25.1270944],[55.1213612,25.1254056],[55.118756,25.1239122],[55.1253882,25.1227994],[55.1185309,25.1218332],[55.1168639,25.1202096],[55.1271878,25.1213873],[55.1195538,25.1184658],[55.1153927,25.1156529],[55.1153169,25.1141607],[55.1225847,25.1185802],[55.1288422,25.1203468],[55.1205752,25.1152635],[55.1167586,25.1111132],[55.1162202,25.1082673],[55.1176848,25.1083574],[55.1232856,25.115733],[55.1300835,25.1193532],[55.1227652,25.1123267],[55.1204983,25.1043448],[55.1248237,25.112927],[55.1310564,25.1185824],[55.1255774,25.1101516],[55.1250173,25.1035067],[55.1275923,25.1115115],[55.13219,25.1177557],[55.1294749,25.11104],[55.129096,25.104],[55.1306035,25.1042502],[55.1310377,25.1114688],[55.1334055,25.1168503],[55.1322058,25.1110042],[55.1332871,25.1046862],[55.1347079,25.1052794],[55.1335871,25.1100251],[55.1345738,25.1159415],[55.1369551,25.1119285],[55.1350938,25.1092915],[55.1398313,25.1092635],[55.1475459,25.1032548],[55.1495059,25.1025082],[55.1479703,25.1017763],[55.1509729,25.1030242],[55.152266,25.1041294],[55.1531713,25.107485],[55.1528439,25.106347],[55.1472186,25.1112468],[55.1491721,25.1139252],[55.1476981,25.1149258],[55.1451819,25.1126666],[55.1428289,25.1147135],[55.1431022,25.1181919],[55.1406581,25.11603],[55.1359437,25.11746],[55.14155,25.1192972],[55.1472259,25.1190645],[55.1479066,25.120467],[55.143013,25.120869],[55.1346983,25.1182889],[55.1402604,25.1214384],[55.1478696,25.1232027],[55.1480176,25.1244421],[55.1403344,25.1228677],[55.1336007,25.119261],[55.137499,25.1231198],[55.1477843,25.1283537],[55.1392815,25.1258676],[55.1323322,25.1199401],[55.1366293,25.1260673],[55.1455319,25.1306731],[55.145397,25.1323828],[55.1370392,25.1281557],[55.1314217,25.12077],[55.1343722,25.1282227],[55.1403227,25.1334168],[55.1405077,25.1353148],[55.1342951,25.1303184],[55.1300852,25.1217323],[55.1307187,25.1274573],[55.1348655,25.1340727],[55.1340639,25.1351194],[55.1301483,25.1300254],[55.1285759,25.1228374],[55.1280055,25.132384],[55.1266489,25.1303882],[55.1266797,25.1243728],[55.1245369,25.1298718],[55.1233345,25.1273596],[55.1208063,25.1270944]]],[[[55.121771219628059,25.13661875],[55.1136834,25.1290045],[55.1094777,25.1210015],[55.1087352,25.1105914],[55.1127126,25.1027987],[55.1136487,25.1049809],[55.1112909,25.1116879],[55.1115313,25.1183234],[55.1139453,25.1245291],[55.1198505,25.1314174],[55.132291,25.1386243],[55.1405687,25.1388029],[55.1465772,25.1365878],[55.148363,25.138008],[55.1433904,25.1406428],[55.136711,25.1415895],[55.1287787,25.1401069],[55.121771219628059,25.13661875]]],[[[55.1334988,25.224695],[55.1324108,25.2072402],[55.1352498,25.2070772],[55.1356192,25.2086872],[55.1371052,25.2071082],[55.1354747,25.2055058],[55.1340422,25.206135],[55.1349984,25.2036633],[55.1323527,25.2006782],[55.1343016,25.2003164],[55.1352368,25.1978166],[55.1377191,25.1974755],[55.140313,25.2002758],[55.1366594,25.1996004],[55.135726,25.2010502],[55.1378239,25.202174],[55.1374773,25.2044574],[55.1398975,25.2072674],[55.1359828,25.2114632],[55.1370675,25.2145705],[55.1358816,25.2166967],[55.1380412,25.2180689],[55.134837,25.2201975],[55.1366586,25.2250205],[55.1334988,25.224695]]],[[[55.2330791,25.3630672],[55.2412219,25.3693533],[55.2396843,25.3697322],[55.2300901,25.3643605],[55.222755,25.3549041],[55.2221524,25.3560847],[55.2195625,25.3496749],[55.2211487,25.3511228],[55.2240036,25.3448715],[55.2234232,25.3498429],[55.2246677,25.3518209],[55.232665,25.3547431],[55.2334654,25.3572891],[55.2314913,25.3599261],[55.2330791,25.3630672]]]]}}
